[{"OBJECT_NAME":"STARLINK-32503","OBJECT_ID":"2024-224U","EPOCH":"2025-12-24T22:47:40.119360","MEAN_MOTION":15.2759202,"ECCENTRICITY":0.0001737,"INCLINATION":43.0026,"RA_OF_ASC_NODE":227.6208,"ARG_OF_PERICENTER":264.1251,"MEAN_ANOMALY":95.9403,"EPHEMERIS_TYPE":0,"CLASSIFICATION_TYPE":"U","NORAD_CAT_ID":62157,"ELEMENT_SET_NO":999,"REV_AT_EPOCH":6053,"BSTAR":0.00092555152,"MEAN_MOTION_DOT":0.00025304,"MEAN_MOTION_DDOT":0},{"OBJECT_NAME":"STARLINK-32508","OBJECT_ID":"2024-224V","EPOCH":"2025-12-24T07:46:08.998464","MEAN_MOTION":15.2757672,"ECCENTRICITY":0.00012536,"INCLINATION":42.9932,"RA_OF_ASC_NODE":223.7404,"ARG_OF_PERICENTER":265.1449,"MEAN_ANOMALY":94.926,"EPHEMERIS_TYPE":0,"CLASSIFICATION_TYPE":"U","NORAD_CAT_ID":62158,"ELEMENT_SET_NO":999,"REV_AT_EPOCH":6095,"BSTAR":0.00081950344,"MEAN_MOTION_DOT":0.00022355,"MEAN_MOTION_DDOT":0},{"OBJECT_NAME":"STARLINK-32524","OBJECT_ID":"2024-224W","EPOCH":"2025-12-24T15:36:14.945472","MEAN_MOTION":15.27615715,"ECCENTRICITY":9.838e-5,"INCLINATION":42.997,"RA_OF_ASC_NODE":225.3516,"ARG_OF_PERICENTER":209.3279,"MEAN_ANOMALY":150.7518,"EPHEMERIS_TYPE":0,"CLASSIFICATION_TYPE":"U","NORAD_CAT_ID":62159,"ELEMENT_SET_NO":999,"REV_AT_EPOCH":6080,"BSTAR":0.0011908118,"MEAN_MOTION_DOT":0.00032688,"MEAN_MOTION_DDOT":0},{"OBJECT_NAME":"STARLINK-32484","OBJECT_ID":"2024-224X","EPOCH":"2025-12-24T22:23:09.211200","MEAN_MOTION":15.27555942,"ECCENTRICITY":0.00023991,"INCLINATION":43.0008,"RA_OF_ASC_NODE":220.572,"ARG_OF_PERICENTER":285.0234,"MEAN_ANOMALY":75.0352,"EPHEMERIS_TYPE":0,"CLASSIFICATION_TYPE":"U","NORAD_CAT_ID":62160,"ELEMENT_SET_NO":999,"REV_AT_EPOCH":6104,"BSTAR":0.00057560483,"MEAN_MOTION_DOT":0.000156,"MEAN_MOTION_DDOT":0},{"OBJECT_NAME":"STARLINK-32497","OBJECT_ID":"2024-224Y","EPOCH":"2025-12-24T21:41:45.314880","MEAN_MOTION":15.27596784,"ECCENTRICITY":0.00016516,"INCLINATION":43.0007,"RA_OF_ASC_NODE":223.8194,"ARG_OF_PERICENTER":266.9415,"MEAN_ANOMALY":93.1248,"EPHEMERIS_TYPE":0,"CLASSIFICATION_TYPE":"U","NORAD_CAT_ID":62161,"ELEMENT_SET_NO":999,"REV_AT_EPOCH":6099,"BSTAR":0.0010567856,"MEAN_MOTION_DOT":0.00028948,"MEAN_MOTION_DDOT":0},{"OBJECT_NAME":"STARLINK-32526","OBJECT_ID":"2024-224Z","EPOCH":"2025-12-23T23:49:07.206528","MEAN_MOTION":15.27596294,"ECCENTRICITY":0.00014954,"INCLINATION":42.9984,"RA_OF_ASC_NODE":229.0186,"ARG_OF_PERICENTER":281.838,"MEAN_ANOMALY":78.2304,"EPHEMERIS_TYPE":0,"CLASSIFICATION_TYPE":"U","NORAD_CAT_ID":62162,"ELEMENT_SET_NO":999,"REV_AT_EPOCH":6085,"BSTAR":0.00073053705,"MEAN_MOTION_DOT":0.00019905,"MEAN_MOTION_DDOT":0},{"OBJECT_NAME":"STARLINK-32523","OBJECT_ID":"2024-225C","EPOCH":"2025-12-24T17:20:15.270144","MEAN_MOTION":14.98334672,"ECCENTRICITY":0.00028495,"INCLINATION":70.0029,"RA_OF_ASC_NODE":353.5533,"ARG_OF_PERICENTER":270.8468,"MEAN_ANOMALY":89.2364,"EPHEMERIS_TYPE":0,"CLASSIFICATION_TYPE":"U","NORAD_CAT_ID":62165,"ELEMENT_SET_NO":999,"REV_AT_EPOCH":5864,"BSTAR":0.00021715238,"MEAN_MOTION_DOT":2.499e-5,"MEAN_MOTION_DDOT":0},{"OBJECT_NAME":"STARLINK-32551","OBJECT_ID":"2024-225D","EPOCH":"2025-12-24T08:43:30.950688","MEAN_MOTION":14.98339308,"ECCENTRICITY":0.00031009,"INCLINATION":70.0024,"RA_OF_ASC_NODE":354.3144,"ARG_OF_PERICENTER":270.205,"MEAN_ANOMALY":89.8754,"EPHEMERIS_TYPE":0,"CLASSIFICATION_TYPE":"U","NORAD_CAT_ID":62166,"ELEMENT_SET_NO":999,"REV_AT_EPOCH":5859,"BSTAR":0.00033532328,"MEAN_MOTION_DOT":3.911e-5,"MEAN_MOTION_DDOT":0},{"OBJECT_NAME":"STARLINK-32506","OBJECT_ID":"2024-225E","EPOCH":"2025-12-24T17:44:17.933280","MEAN_MOTION":14.98339257,"ECCENTRICITY":0.00030342,"INCLINATION":70.0019,"RA_OF_ASC_NODE":353.6111,"ARG_OF_PERICENTER":272.1282,"MEAN_ANOMALY":87.953,"EPHEMERIS_TYPE":0,"CLASSIFICATION_TYPE":"U","NORAD_CAT_ID":62167,"ELEMENT_SET_NO":999,"REV_AT_EPOCH":5864,"BSTAR":0.0002044453,"MEAN_MOTION_DOT":2.348e-5,"MEAN_MOTION_DDOT":0},{"OBJECT_NAME":"STARLINK-32562","OBJECT_ID":"2024-225F","EPOCH":"2025-12-24T09:01:33.053664","MEAN_MOTION":14.98334721,"ECCENTRICITY":0.00021615,"INCLINATION":70.0043,"RA_OF_ASC_NODE":354.3494,"ARG_OF_PERICENTER":267.5637,"MEAN_ANOMALY":92.5274,"EPHEMERIS_TYPE":0,"CLASSIFICATION_TYPE":"U","NORAD_CAT_ID":62168,"ELEMENT_SET_NO":999,"REV_AT_EPOCH":5859,"BSTAR":0.00042596282,"MEAN_MOTION_DOT":4.994e-5,"MEAN_MOTION_DDOT":0},{"OBJECT_NAME":"STARLINK-32558","OBJECT_ID":"2024-225G","EPOCH":"2025-12-24T09:13:34.218048","MEAN_MOTION":14.98335739,"ECCENTRICITY":0.00030536,"INCLINATION":70.0027,"RA_OF_ASC_NODE":354.3805,"ARG_OF_PERICENTER":268.4673,"MEAN_ANOMALY":91.6136,"EPHEMERIS_TYPE":0,"CLASSIFICATION_TYPE":"U","NORAD_CAT_ID":62169,"ELEMENT_SET_NO":999,"REV_AT_EPOCH":5859,"BSTAR":0.0003594733,"MEAN_MOTION_DOT":4.199e-5,"MEAN_MOTION_DDOT":0},{"OBJECT_NAME":"STARLINK-32538","OBJECT_ID":"2024-225H","EPOCH":"2025-12-24T09:31:36.347808","MEAN_MOTION":14.98329229,"ECCENTRICITY":0.0003049,"INCLINATION":70.002,"RA_OF_ASC_NODE":354.4231,"ARG_OF_PERICENTER":276.7039,"MEAN_ANOMALY":83.3773,"EPHEMERIS_TYPE":0,"CLASSIFICATION_TYPE":"U","NORAD_CAT_ID":62170,"ELEMENT_SET_NO":999,"REV_AT_EPOCH":5859,"BSTAR":7.9053767e-5,"MEAN_MOTION_DOT":8.5e-6,"MEAN_MOTION_DDOT":0},{"OBJECT_NAME":"STARLINK-32257","OBJECT_ID":"2024-225J","EPOCH":"2025-12-24T10:01:37.124256","MEAN_MOTION":14.98338515,"ECCENTRICITY":0.00030965,"INCLINATION":70.0027,"RA_OF_ASC_NODE":354.1,"ARG_OF_PERICENTER":269.9485,"MEAN_ANOMALY":90.132,"EPHEMERIS_TYPE":0,"CLASSIFICATION_TYPE":"U","NORAD_CAT_ID":62171,"ELEMENT_SET_NO":999,"REV_AT_EPOCH":5860,"BSTAR":0.00035855153,"MEAN_MOTION_DOT":4.189e-5,"MEAN_MOTION_DDOT":0},{"OBJECT_NAME":"STARLINK-32407","OBJECT_ID":"2024-225K","EPOCH":"2025-12-25T00:00:02.999808","MEAN_MOTION":14.98339505,"ECCENTRICITY":0.00031317,"INCLINATION":70.0023,"RA_OF_ASC_NODE":352.7251,"ARG_OF_PERICENTER":269.6456,"MEAN_ANOMALY":260.1026,"EPHEMERIS_TYPE":0,"CLASSIFICATION_TYPE":"U","NORAD_CAT_ID":62172,"ELEMENT_SET_NO":999,"REV_AT_EPOCH":572,"BSTAR":0.00059482916,"MEAN_MOTION_DOT":7.013e-5,"MEAN_MOTION_DDOT":0},{"OBJECT_NAME":"STARLINK-32575","OBJECT_ID":"2024-225L","EPOCH":"2025-12-24T16:16:44.411520","MEAN_MOTION":14.9833841,"ECCENTRICITY":0.00022101,"INCLINATION":70.0045,"RA_OF_ASC_NODE":343.3933,"ARG_OF_PERICENTER":293.7284,"MEAN_ANOMALY":66.3644,"EPHEMERIS_TYPE":0,"CLASSIFICATION_TYPE":"U","NORAD_CAT_ID":62173,"ELEMENT_SET_NO":999,"REV_AT_EPOCH":5889,"BSTAR":0.00040455804,"MEAN_MOTION_DOT":4.738e-5,"MEAN_MOTION_DDOT":0},{"OBJECT_NAME":"STARLINK-32552","OBJECT_ID":"2024-225M","EPOCH":"2025-12-24T16:32:10.077792","MEAN_MOTION":14.98338114,"ECCENTRICITY":0.00029361,"INCLINATION":70.0029,"RA_OF_ASC_NODE":353.44,"ARG_OF_PERICENTER":273.5989,"MEAN_ANOMALY":86.4834,"EPHEMERIS_TYPE":0,"CLASSIFICATION_TYPE":"U","NORAD_CAT_ID":62174,"ELEMENT_SET_NO":999,"REV_AT_EPOCH":5864,"BSTAR":0.0002650865,"MEAN_MOTION_DOT":3.072e-5,"MEAN_MOTION_DDOT":0}]
