STARLINK-32503          
1 62157U 24224U   25358.94976990  .00025304  00000+0  92555-3 0  9993
2 62157  43.0026 227.6208 0001737 264.1251  95.9403 15.27592020 60531
STARLINK-32508          
1 62158U 24224V   25358.32371526  .00022355  00000+0  81950-3 0  9990
2 62158  42.9932 223.7404 0001253 265.1449  94.9260 15.27576720 60959
STARLINK-32524          
1 62159U 24224W   25358.65017298  .00032688  00000+0  11908-2 0  9995
2 62159  42.9970 225.3516 0000983 209.3279 150.7518 15.27615715 60803
STARLINK-32484          
1 62160U 24224X   25358.93274550  .00015600  00000+0  57560-3 0  9994
2 62160  43.0008 220.5720 0002399 285.0234  75.0352 15.27555942 61045
STARLINK-32497          
1 62161U 24224Y   25358.90399670  .00028948  00000+0  10568-2 0  9998
2 62161  43.0007 223.8194 0001651 266.9415  93.1248 15.27596784 60992
STARLINK-32526          
1 62162U 24224Z   25357.99244452  .00019905  00000+0  73054-3 0  9997
2 62162  42.9984 229.0186 0001495 281.8380  78.2304 15.27596294 60855
STARLINK-32523          
1 62165U 24225C   25358.72239896  .00002499  00000+0  21715-3 0  9996
2 62165  70.0029 353.5533 0002849 270.8468  89.2364 14.98334672 58647
STARLINK-32551          
1 62166U 24225D   25358.36355267  .00003911  00000+0  33532-3 0  9998
2 62166  70.0024 354.3144 0003100 270.2050  89.8754 14.98339308 58596
STARLINK-32506          
1 62167U 24225E   25358.73909645  .00002348  00000+0  20445-3 0  9997
2 62167  70.0019 353.6111 0003034 272.1282  87.9530 14.98339257 58641
STARLINK-32562          
1 62168U 24225F   25358.37607701  .00004994  00000+0  42596-3 0  9996
2 62168  70.0043 354.3494 0002161 267.5637  92.5274 14.98334721 58595
STARLINK-32558          
1 62169U 24225G   25358.38442382  .00004199  00000+0  35947-3 0  9999
2 62169  70.0027 354.3805 0003053 268.4673  91.6136 14.98335739 58592
STARLINK-32538          
1 62170U 24225H   25358.39694847  .00000850  00000+0  79054-4 0  9995
2 62170  70.0020 354.4231 0003049 276.7039  83.3773 14.98329229 58596
STARLINK-32257          
1 62171U 24225J   25358.41779079  .00004189  00000+0  35855-3 0  9999
2 62171  70.0027 354.1000 0003096 269.9485  90.1320 14.98338515 58600
STARLINK-32407          
1 62172U 24225K   25359.00003472  .00007013  00000+0  59483-3 0  9995
2 62172  70.0023 352.7251 0003131 269.6456 260.1026 14.98339505  5721
STARLINK-32575          
1 62173U 24225L   25358.67829180  .00004738  00000+0  40456-3 0  9991
2 62173  70.0045 343.3933 0002210 293.7284  66.3644 14.98338410 58895
STARLINK-32552          
1 62174U 24225M   25358.68900553  .00003072  00000+0  26509-3 0  9990
2 62174  70.0029 353.4400 0002936 273.5989  86.4834 14.98338114 58640
